SITRO-AIS-10 (KATYS)
1 57199U 23091AK  26068.94827501  .00026021  00000-0  77207-3 0  9991
2 57199  97.5182 137.3607 0008128  74.3981 285.8158 15.34764555149526
SITRO-AIS-9 (BURDAEV)
1 57201U 23091AM  26068.94655766  .00023992  00000-0  72073-3 0  9997
2 57201  97.5180 137.1581 0008366  74.1415 286.0749 15.34387966149516
