[{"OBJECT_NAME":"SITRO-AIS 10 (BURDAEV)","OBJECT_ID":"2023-091AK","EPOCH":"2026-03-09T22:45:30.960864","MEAN_MOTION":15.34764555,"ECCENTRICITY":0.00081281,"INCLINATION":97.5182,"RA_OF_ASC_NODE":137.3607,"ARG_OF_PERICENTER":74.3981,"MEAN_ANOMALY":285.8158,"EPHEMERIS_TYPE":0,"CLASSIFICATION_TYPE":"U","NORAD_CAT_ID":57199,"ELEMENT_SET_NO":999,"REV_AT_EPOCH":14952,"BSTAR":0.00077206799,"MEAN_MOTION_DOT":0.00026021,"MEAN_MOTION_DDOT":0},{"OBJECT_NAME":"SITRO-AIS 9 (SHCHUKIN)","OBJECT_ID":"2023-091AM","EPOCH":"2026-03-09T22:43:02.581824","MEAN_MOTION":15.34387966,"ECCENTRICITY":0.00083665,"INCLINATION":97.518,"RA_OF_ASC_NODE":137.1581,"ARG_OF_PERICENTER":74.1415,"MEAN_ANOMALY":286.0749,"EPHEMERIS_TYPE":0,"CLASSIFICATION_TYPE":"U","NORAD_CAT_ID":57201,"ELEMENT_SET_NO":999,"REV_AT_EPOCH":14951,"BSTAR":0.00072073044,"MEAN_MOTION_DOT":0.00023992,"MEAN_MOTION_DDOT":0}]
